C/2022 R3 (Leonard),h,03/05.5200/2023,43.0822,8.2428,72.8880,1.001117,5.129453,2000,9.0,4.0
# From MPEC 2022-X67
P/2022 R4 (PANSTARRS),e,21.0197,176.6288,197.4631,3.836951,0.1311368,0.49000810,77.1954,02/19.0/2024,2000,g 16.5,4.0
# From MPEC 2022-WQ9
P/2022 R5 (PANSTARRS),e,15.2943,115.0504,240.5587,3.068761,0.1833410,0.19522218,116.0173,02/19.0/2024,2000,g 16.0,4.0
# From MPEC 2024-D33
C/2022 R6 (PANSTARRS),h,08/25.5678/2025,57.0215,150.7757,319.8621,1.004446,6.566857,2000,5.0,4.0
# From MPEC 2023-HD1
P/2022 S1 (PANSTARRS),e,34.5783,136.0933,262.7936,6.408301,0.0607561,0.50805204,33.3396,02/19.0/2024,2000,g 15.1,4.0
# From MPEC 2022-VC5
C/2022 S3 (PANSTARRS),h,01/21.6933/2023,78.5358,157.3125,267.9659,1.000400,0.838331,2000,17.0,4.0
# From MPEC 2024-D33
C/2022 S4 (Lemmon),e,101.2210,220.1745,268.5451,1223,0.0000231,0.99774097,0.0000,07/18.7136/2024,2000,g  8.0,4.0
# From MPEC 2023-HD1
C/2022 S5 (PANSTARRS),e,136.5317,214.8600,232.8013,20.46227,0.0106481,0.89350265,4.7752,02/19.0/2024,2000,g 16.3,4.0
# From MPEC 2024-D33
C/2022 T1 (Lemmon),e,22.5439,236.9187,324.3092,42693,0.0000001,0.99991931,0.0000,02/17.4732/2024,2000,g  9.0,4.0
# From MPEC 2024-C04
C/2022 U1 (Leonard),e,128.1496,72.5263,78.5804,7024,0.0000017,0.99940178,0.0000,03/25.8463/2024,2000,g  8.5,4.0
# From MPEC 2023-VM5
C/2022 U2 (ATLAS),e,48.2452,304.4583,147.9311,96.69441,0.0010366,0.98626426,0.0000,01/14.2393/2023,2000,g 16.0,4.0
# From MPEC 2024-D33
C/2022 U3 (Bok),h,07/28.2107/2024,33.6444,272.7855,189.0682,1.002898,4.826627,2000,7.5,4.0
# From MPEC 2023-W26
C/2022 U4 (Bok),e,52.0370,132.9203,89.0068,3086,0.0000057,0.99906074,0.0000,08/03.6589/2023,2000,g 10.5,4.0
# From MPEC 2024-D33
C/2022 V2 (Lemmon),e,98.9033,332.8706,168.9505,36.83124,0.0044094,0.94397163,0.4809,02/19.0/2024,2000,g 12.0,4.0
# From MPEC 2023-CD7
P/2022 W1 (Rankin),e,13.4659,38.8164,17.8441,6.969964,0.0535622,0.51664365,27.9075,02/19.0/2024,2000,g 12.5,4.0
# From MPEC 2024-D33
C/2022 W2 (ATLAS),e,63.5236,320.4512,123.2759,343.0026,0.0001552,0.99089493,0.0000,03/08.7550/2023,2000,g 11.5,4.0
# From MPEC 2024-C04
C/2022 W3 (Leonard),e,103.5608,132.2705,116.5248,279.9507,0.0002104,0.99500712,0.0000,06/22.7759/2023,2000,g 13.0,4.0
# From MPEC 2023-M14
C/2022 Y1 (Hogan),e,18.8554,285.9017,174.7834,12.57880,0.0220925,0.76482824,9.9112,02/19.0/2024,2000,g  9.0,4.0
# From MPEC 2023-TM6
C/2022 Y2 (Lemmon),e,165.8909,216.3538,105.5065,19.86466,0.0111322,0.87202511,3.7100,02/19.0/2024,2000,g 13.5,4.0
# From MPEC 2023-KD6
C/2023 A1 (Leonard),e,94.7386,318.3024,159.2482,224.7358,0.0002925,0.99183575,0.0000,03/18.7077/2023,2000,g 14.5,4.0
# From MPEC 2023-J95
C/2023 A2 (SWAN),e,94.7104,94.4812,142.5527,446.5179,0.0001045,0.99787915,0.0000,01/20.3707/2023,2000,g 13.5,4.0
# From MPEC 2024-D33
C/2023 A3 (Tsuchinshan-ATLAS),h,09/27.7458/2024,139.1132,21.5596,308.4892,1.000115,0.391457,2000,5.0,4.0
# From MPEC 2024-BE0
P/2023 B1 (PANSTARRS),e,14.5883,78.5678,81.3263,7.056260,0.0525826,0.12975113,15.6127,02/19.0/2024,2000,g  5.5,4.0
# From MPEC 2023-XP6
C/2023 B2 (ATLAS),e,40.7712,218.1197,317.3831,599.3418,0.0000672,0.99709232,0.0000,03/10.4869/2023,2000,g 14.5,4.0
# From MPEC 2023-F81
P/2023 B3 (PANSTARRS),e,9.1603,154.0042,240.1392,4.546729,0.1016613,0.12308066,128.2622,02/19.0/2024,2000,g 10.5,4.0
# From MPEC 2024-D33
C/2023 C2 (ATLAS),e,48.3165,301.0099,357.4570,3368,0.0000050,0.99929687,0.0000,11/16.8123/2024,2000,g  7.0,4.0
# From MPEC 2024-D33
C/2023 E1 (ATLAS),e,38.3045,164.5643,105.9177,19.36984,0.0115615,0.94698783,2.6925,02/19.0/2024,2000,g 15.5,4.0
# From MPEC 2023-N01
C/2023 F1 (PANSTARRS),e,131.7517,25.2497,216.6674,260.3224,0.0002347,0.99343727,0.0000,06/28.3600/2023,2000,g 16.0,4.0
# From MPEC 2024-D33
C/2023 F3 (ATLAS),h,02/02.7463/2025,145.9601,109.4508,265.5360,1.004296,5.190521,2000,6.0,4.0
# From MPEC 2023-M14
C/2023 H1 (PANSTARRS),e,21.7782,292.6366,333.8413,1540,0.0000163,0.99711479,0.0000,11/28.3708/2024,2000,g 12.6,4.0
# From MPEC 2024-BE0
C/2023 H2 (Lemmon),e,113.7536,217.0447,150.6458,244.9509,0.0002571,0.99634874,0.0000,10/29.1876/2023,2000,g 14.0,4.0
# From MPEC 2023-R20
C/2023 H3 (PANSTARRS),e,2.4894,55.0999,193.3211,13.62875,0.0195893,0.61605036,0.0009,02/19.0/2024,2000,g 10.0,4.0
# From MPEC 2023-SQ0
A/2023 H4,e,76.6190,230.8130,64.9059,140.4409,0.0005922,0.98490855,0.0000,08/08.8183/2023,2000,g 18.0,22.0
# From MPEC 2024-D33
C/2023 H5 (Lemmon),h,06/30.1590/2025,97.8699,159.4829,60.0778,1.000369,4.313074,2000,7.0,4.0
# From MPEC 2024-D33
C/2023 K1 (ATLAS),e,137.9984,223.7057,337.4620,759.3719,0.0000471,0.99731426,0.0000,09/07.7275/2023,2000,g 13.0,4.0
# From MPEC 2023-N01
P/2023 M1 (PANSTARRS),e,12.2883,216.8624,79.6875,6.847391,0.0550068,0.58728090,3.6640,02/19.0/2024,2000,g 13.5,4.0
# From MPEC 2024-BE0
P/2023 M2 (PANSTARRS),e,19.7254,83.2629,243.0433,5.564290,0.0750913,0.36946619,15.6627,02/19.0/2024,2000,g 12.5,4.0
# From MPEC 2024-A43
P/2023 M4 (ATLAS),e,7.5926,296.2957,320.6713,5.451686,0.0774297,0.27919819,52.2732,02/19.0/2024,2000,g  7.5,4.0
# From MPEC 2024-D33
C/2023 P1 (Nishimura),e,132.4768,66.8359,116.2966,57.10324,0.0022841,0.99605805,0.0000,09/17.6426/2023,2000,g 10.0,4.0
# From MPEC 2024-D33
C/2023 Q1 (PANSTARRS),h,12/01.2547/2024,36.6634,7.1584,84.4170,1.004845,2.575414,2000,10.0,4.0
# From MPEC 2023-XP6
C/2023 Q2 (PANSTARRS),e,104.0564,92.6801,171.7233,343.8841,0.0001546,0.99066721,0.0000,06/24.0768/2024,2000,g 11.5,4.0
# From MPEC 2024-D33
C/2023 R1 (PANSTARRS),h,04/13.9074/2026,149.3154,62.5512,144.2948,1.001118,3.569890,2000,6.0,4.0
# From MPEC 2024-D33
C/2023 R2 (PANSTARRS),h,08/12.1390/2024,30.6940,188.9254,337.2805,1.000335,0.905310,2000,10.5,4.0
# From MPEC 2023-UR6
A/2023 R3,e,12.0865,347.3510,86.8941,660.1745,0.0000581,0.99794364,0.0000,12/18.1830/2023,2000,g 20.0,22.0
# From MPEC 2024-BE0
C/2023 RN3 (ATLAS),e,10.3575,207.0682,130.3745,10.15896,0.0304390,0.49075517,12.0621,02/19.0/2024,2000,g  7.5,4.0
# From MPEC 2024-D33
P/2023 S1,e,9.1471,317.4298,180.0227,3.853597,0.1302881,0.32016748,311.7338,02/19.0/2024,2000,g 11.5,4.0
# From MPEC 2023-XP6
C/2023 S2 (ATLAS),e,20.4859,230.5612,78.1151,153.3675,0.0005189,0.99303804,0.0000,10/15.3857/2023,2000,g 15.0,4.0
# From MPEC 2023-XP6
C/2023 S3 (Lemmon),e,140.4984,233.8339,281.5704,28.49609,0.0064793,0.97086695,0.0000,01/19.6231/2024,2000,g 16.0,4.0
# From MPEC 2024-B74
P/2023 S4 (Hogan),e,1.0971,26.7589,11.3244,3.131512,0.1778578,0.18850002,38.7485,02/19.0/2024,2000,g 15.5,4.0
# From MPEC 2024-BE0
P/2023 T1 (PANSTARRS),e,6.6109,249.5735,202.8685,4.232624,0.1131852,0.33439379,349.3711,02/19.0/2024,2000,g 14.0,4.0
# From MPEC 2024-D33
C/2023 T2 (Borisov),e,48.5976,317.5326,111.1938,229.4633,0.0002836,0.99130384,0.0000,12/22.7912/2023,2000,g 14.5,4.0
# From MPEC 2024-D33
C/2023 T3 (Fuls),e,27.2220,246.0015,302.8496,696.0755,0.0000537,0.99490233,0.0000,01/25.3926/2025,2000,g  8.5,4.0
# From MPEC 2024-D33
C/2023 U1 (Fuls),e,108.1473,305.8107,255.5984,2370,0.0000085,0.99790196,0.0000,10/12.5302/2024,2000,g  8.0,4.0
# From MPEC 2024-A43
C/2023 V1 (Lemmon),e,102.0104,15.0270,103.3058,11595,0.0000008,0.99956077,0.0000,07/13.0914/2025,2000,g  8.5,4.0
# From MPEC 2024-D33
P/2023 V2 (PANSTARRS),e,9.8834,95.4771,330.5969,7.252118,0.0504669,0.57192613,0.7484,02/19.0/2024,2000,g 13.5,4.0
# From MPEC 2024-A43
C/2023 V3 (PANSTARRS),e,40.2750,91.4605,291.5907,13.25594,0.0204215,0.66263982,4.0122,02/19.0/2024,2000,g 11.5,4.0
# From MPEC 2024-D33
C/2023 V4 (Camarasa-Duszanowicz),h,05/30.3651/2024,67.1295,66.3254,50.8537,1.001074,1.121724,2000,12.0,4.0
# From MPEC 2023-W26
C/2023 V5 (Leonard),h,12/13.4376/2023,73.9607,31.4433,56.3957,1.028224,0.849140,2000,21.5,4.0
# From MPEC 2024-AF0
P/2023 V6 (PANSTARRS),e,3.9767,190.0251,193.9712,5.337053,0.0799377,0.17869852,34.2042,02/19.0/2024,2000,g 11.5,4.0
# From MPEC 2024-C04
C/2023 X1 (Leonard),e,110.5892,137.0150,321.4881,169.1180,0.0004481,0.99437876,0.0000,10/18.0966/2023,2000,g 13.5,3.2
# From MPEC 2024-D33
C/2023 X2 (Lemmon),h,12/26.0408/2025,76.9813,66.3119,64.4407,1.001097,5.101660,2000,8.5,3.2
# From MPEC 2024-A43
P/2023 X3 (PANSTARRS),e,4.4835,62.0137,40.8001,4.248271,0.1125604,0.28673772,352.9236,02/19.0/2024,2000,g 15.5,4.0
# From MPEC 2024-D33
C/2023 X4 (Hogan),e,11.5948,28.7661,100.5332,9.910424,0.0315912,0.63089083,356.9762,02/19.0/2024,2000,g 12.0,4.0
# From MPEC 2024-D33
P/2023 Y1 (Gibbs),e,6.3839,78.8560,51.4430,3.746707,0.1359031,0.44490401,11.0387,02/19.0/2024,2000,g 17.0,4.0
# From MPEC 2024-D33
P/2023 Y2 (Gibbs),e,6.9927,79.2302,16.8114,3.744185,0.1360405,0.39212343,26.2743,02/19.0/2024,2000,g 15.5,4.0
# From MPEC 2024-D33
C/2024 A1 (ATLAS),h,06/13.7916/2025,94.4476,112.1407,353.2976,1.000665,3.876260,2000,7.0,4.0
# From MPEC 2024-D33
C/2024 A2 (ATLAS),e,119.1089,78.1634,295.5638,32.56244,0.0053043,0.94220939,359.6293,02/19.0/2024,2000,g 12.5,4.0
# From MPEC 2024-D33
C/2024 B1 (Lemmon),h,10/07.6920/2024,70.8904,79.1907,66.2138,1.001103,1.633409,2000,13.0,4.0
# From MPEC 2024-D33
C/2024 B2 (Lemmon),e,99.8387,294.3784,130.3147,5853,0.0000022,0.99930352,0.0000,10/06.0110/2023,2000,g 11.5,4.0
# From MPEC 2024-D33
C/2024 C1 (PANSTARRS),e,14.2265,83.8101,94.5244,10.55537,0.0287405,0.58200066,354.4160,02/19.0/2024,2000,g 11.5,4.0
# From MPEC 2024-CH8
C/2024 C2 (PANSTARRS),e,27.2821,66.4297,87.8935,16.18518,0.0151366,0.44482438,354.0511,02/19.0/2024,2000,g  6.0,4.0
# From  98, 1083
1P/Halley,e,162.2116,59.6601,112.5761,17.86891,0.0130484,0.96678155,180.9215,02/19.0/2024,2000,g  4.0,6.0
# From MPEC 2023-XP6
2P/Encke,e,11.3370,334.0179,187.2875,2.218628,0.2982478,0.84694095,35.6322,02/19.0/2024,2000,g 11.5,6.0
# From  76, 1135
3D/Biela,e,7.8872,276.1838,192.2816,3.539570,0.1480056,0.76740169,286.9956,02/19.0/2024,2000,g 11.0,6.0
# From  76, 1135
3D-A/Biela,e,7.2154,276.6881,192.1225,3.549385,0.1473922,0.76706363,317.6781,02/19.0/2024,2000,g 11.0,6.0
# From  76, 1135
3D-B/Biela,e,7.8792,276.1985,192.2426,3.540325,0.1479583,0.76769935,286.7413,02/19.0/2024,2000,g 11.0,6.0
# From MPEC 2023-FK0
